OBJECT_NAME,OBJECT_ID,EPOCH,MEAN_MOTION,ECCENTRICITY,INCLINATION,RA_OF_ASC_NODE,ARG_OF_PERICENTER,MEAN_ANOMALY,EPHEMERIS_TYPE,CLASSIFICATION_TYPE,NORAD_CAT_ID,ELEMENT_SET_NO,REV_AT_EPOCH,BSTAR,MEAN_MOTION_DOT,MEAN_MOTION_DDOT
SAR-LUPE 2,2007-030A,2026-06-19T19:11:08.777760,15.50496934,.0004088,98.1044,275.5555,151.0077,209.1400,0,U,31797,999,5734,.19664E-3,.11108E-3,0
SAPPHIRE,2013-009C,2026-06-19T19:27:52.708608,14.35241142,.0010159,98.4263,350.2045,237.9489,122.0711,0,U,39088,999,69695,.37703E-4,.65E-6,0
PRAETORIAN SDA_602,2025-203A,2026-06-19T18:29:41.607744,13.84277869,.0005934,81.3029,8.3756,178.5426,181.5749,0,U,65565,999,3905,.62403E-4,.82E-6,0
PRAETORIAN SDA_603,2025-203B,2026-06-19T15:40:55.705728,13.83905368,.0009572,81.3033,8.4017,180.7024,179.4120,0,U,65566,999,3904,.53661E-4,.71E-6,0
PRAETORIAN SDA_604,2025-203C,2026-06-19T16:11:31.113888,13.83047733,.0005398,81.3052,8.7987,184.4339,175.6770,0,U,65567,999,3902,.31587E-4,.46E-6,0
PRAETORIAN SDA_605,2025-203D,2026-06-19T13:36:27.201600,13.83434388,.00082115,81.3018,8.5589,176.4621,183.6595,0,U,65568,999,3902,.25386516E-4,.4E-6,0
PRAETORIAN SDA_606,2025-203E,2026-06-17T07:22:48.694656,13.83407378,.00057443,81.3055,10.8712,180.4388,179.6764,0,U,65569,999,3870,.3743896E-4,.53E-6,0
PRAETORIAN SDA_607,2025-203F,2026-06-19T13:20:48.149376,13.84284792,.00087509,81.3037,8.4508,180.9111,179.2032,0,U,65570,999,3903,.14087536E-3,.169E-5,0
PRAETORIAN SDA_608,2025-203G,2026-06-19T16:17:38.369184,13.83817163,.000594,81.3006,8.5004,183.6604,176.4510,0,U,65571,999,3903,.35483E-4,.51E-6,0
PRAETORIAN SDA_609,2025-203H,2026-06-19T16:23:41.339040,13.84208978,.0006823,81.3049,8.4787,178.4506,181.6673,0,U,65572,999,3904,.8036E-4,.102E-5,0
PRAETORIAN SDA_610,2025-203J,2026-06-19T15:48:34.945056,13.83767372,.0006677,81.3006,8.4769,183.5579,176.5531,0,U,65573,999,3903,-.85154E-4,-.82E-6,0
PRAETORIAN SDA_611,2025-203K,2026-06-19T15:50:55.002048,13.83309342,.0005507,81.3011,8.6423,187.2460,172.8618,0,U,65574,999,3902,.16329E-3,.191E-5,0
PRAETORIAN SDA_612,2025-203L,2026-06-19T15:31:31.043712,13.85039697,.0009254,81.3026,8.2360,179.8961,180.2199,0,U,65575,999,3905,.17649E-3,.212E-5,0
PRAETORIAN SDA_613,2025-203M,2026-06-19T16:02:01.870080,13.82765261,.0005699,81.2998,8.6349,176.9461,183.1730,0,U,65576,999,3902,.27053E-4,.41E-6,0
PRAETORIAN SDA_614,2025-203N,2026-06-19T13:32:33.270144,13.84777506,.00071414,81.3014,8.3908,176.9645,183.1556,0,U,65577,999,3904,.6329708E-4,.83E-6,0
PRAETORIAN SDA_615,2025-203P,2026-06-19T16:28:15.341088,13.84436803,.0009033,81.3024,8.2433,178.3195,181.7993,0,U,65578,999,3905,.17647E-3,.209E-5,0
PRAETORIAN SDA_616,2025-203Q,2026-06-19T15:49:53.518944,13.83267977,.0005415,81.3061,8.7905,185.2284,174.8817,0,U,65579,999,3902,.5889E-4,.76E-6,0
PRAETORIAN SDA_617,2025-203R,2026-06-19T16:21:18.258048,13.83150169,.0007394,81.3036,8.6014,177.2901,182.8296,0,U,65580,999,3903,.11392E-4,.24E-6,0
PRAETORIAN SDA_618,2025-203S,2026-06-19T15:38:45.856032,13.84668988,.0009649,81.3022,8.2037,181.5053,178.6076,0,U,65581,999,3905,.10113E-3,.126E-5,0
PRAETORIAN SDA_619,2025-203T,2026-06-19T16:32:44.526336,13.83806059,.0008095,81.3048,8.4696,178.3455,181.7730,0,U,65582,999,3967,.90397E-4,.112E-5,0
PRAETORIAN SDA_620,2025-203U,2026-06-19T13:45:16.278912,13.83618154,.00076207,81.3031,8.5988,174.6384,185.4855,0,U,65583,999,3902,.36446459E-4,.52E-6,0
PRAETORIAN SDA_621,2025-203V,2026-06-19T16:35:18.307968,13.83801454,.0007487,81.3020,8.4066,171.8596,188.2684,0,U,65584,999,3904,.25885E-4,.41E-6,0
PRAETORIAN SDA_601,2025-203W,2026-06-19T15:54:39.820896,13.83168259,.0005449,81.3041,8.7310,188.3327,171.7740,0,U,65585,999,3902,.25157E-3,.287E-5,0
